0 IRIDIUM 159
1 43578U 18061K   24009.16924129  .00000318  00000-0  10663-3 0  9993
2 43578  86.3947  68.6723 0002287  97.5907 262.5549 14.34218882285812
0 IRIDIUM 180
1 43922U 19002A   24008.95943181  .00000327  00000-0  10980-3 0  9999
2 43922  86.3970   5.6347 0002196  92.6887 267.4560 14.34216472261393
0 IRIDIUM 176
1 43923U 19002B   24009.05398767  .00001261  00000-0  19607-3 0  9999
2 43923  86.6099   5.6254 0002509  90.0547 270.0958 14.72243351268283
0 IRIDIUM 168
1 43924U 19002C   24008.95309565  .00000360  00000-0  12157-3 0  9998
2 43924  86.3973   5.6894 0002222  92.4330 267.7120 14.34219733261372
0 IRIDIUM 173
1 43925U 19002D   24008.94040958  .00000362  00000-0  12234-3 0  9994
2 43925  86.3970   5.6199 0002326  90.9741 269.1722 14.34219890261358
0 IRIDIUM 169
1 43926U 19002E   24008.59057742  .00000408  00000-0  12681-3 0  9992
2 43926  86.4211  37.3726 0004497  62.6634 297.5021 14.38620173262187
0 IRIDIUM 172
1 43927U 19002F   24008.93407000  .00000364  00000-0  12295-3 0  9999
2 43927  86.3971   5.6277 0002160  92.7560 267.3883 14.34219552261367
0 IRIDIUM 175
1 43928U 19002G   24008.97999962  .00001335  00000-0  20778-3 0  9991
2 43928  86.1519 347.8627 0002475  87.7891 272.3609 14.72245630268260
